{"fetched_at":"2026-07-11T06:35:05.049Z","source":"https://celestrak.org/NORAD/elements/gp.php?GROUP=kuiper&FORMAT=JSON","constellation":"kuiper","records":[{"OBJECT_NAME":"KUIPER-00008","OBJECT_ID":"2025-088A","EPOCH":"2026-07-10T08:53:08.253024","CLASSIFICATION_TYPE":"U","MEAN_MOTION":14.79924856,"ECCENTRICITY":0.000075,"INCLINATION":51.9018,"RA_OF_ASC_NODE":265.5174,"ARG_OF_PERICENTER":108.6095,"MEAN_ANOMALY":251.4949,"EPHEMERIS_TYPE":0,"NORAD_CAT_ID":63724,"ELEMENT_SET_NO":999,"REV_AT_EPOCH":6621,"BSTAR":-0.0000057726,"MEAN_MOTION_DOT":-0.00000265,"MEAN_MOTION_DDOT":0},{"OBJECT_NAME":"KUIPER-00009","OBJECT_ID":"2025-088B","EPOCH":"2026-07-10T17:20:49.551072","CLASSIFICATION_TYPE":"U","MEAN_MOTION":14.7992488,"ECCENTRICITY":0.000061,"INCLINATION":51.9029,"RA_OF_ASC_NODE":281.5886,"ARG_OF_PERICENTER":86.6359,"MEAN_ANOMALY":273.4673,"EPHEMERIS_TYPE":0,"NORAD_CAT_ID":63725,"ELEMENT_SET_NO":999,"REV_AT_EPOCH":6601,"BSTAR":0.000332,"MEAN_MOTION_DOT":0.0000231,"MEAN_MOTION_DDOT":0},{"OBJECT_NAME":"KUIPER-00010","OBJECT_ID":"2025-088C","EPOCH":"2026-07-10T04:57:48.883392","CLASSIFICATION_TYPE":"U","MEAN_MOTION":14.79925406,"ECCENTRICITY":0.0000614,"INCLINATION":51.9023,"RA_OF_ASC_NODE":261.3419,"ARG_OF_PERICENTER":98.718,"MEAN_ANOMALY":261.3852,"EPHEMERIS_TYPE":0,"NORAD_CAT_ID":63726,"ELEMENT_SET_NO":999,"REV_AT_EPOCH":6587,"BSTAR":0.000001199607,"MEAN_MOTION_DOT":-0.00000212,"MEAN_MOTION_DDOT":0},{"OBJECT_NAME":"KUIPER-00011","OBJECT_ID":"2025-088D","EPOCH":"2026-07-10T16:55:28.972416","CLASSIFICATION_TYPE":"U","MEAN_MOTION":14.7993245,"ECCENTRICITY":0.0000627,"INCLINATION":51.9004,"RA_OF_ASC_NODE":266.6869,"ARG_OF_PERICENTER":109.5089,"MEAN_ANOMALY":250.5941,"EPHEMERIS_TYPE":0,"NORAD_CAT_ID":63727,"ELEMENT_SET_NO":999,"REV_AT_EPOCH":6597,"BSTAR":0.00011257,"MEAN_MOTION_DOT":0.00000637,"MEAN_MOTION_DDOT":0},{"OBJECT_NAME":"KUIPER-00012","OBJECT_ID":"2025-088E","EPOCH":"2026-07-10T16:30:09.817632","CLASSIFICATION_TYPE":"U","MEAN_MOTION":14.79926832,"ECCENTRICITY":0.0000676,"INCLINATION":51.8995,"RA_OF_ASC_NODE":251.6976,"ARG_OF_PERICENTER":109.0234,"MEAN_ANOMALY":251.0802,"EPHEMERIS_TYPE":0,"NORAD_CAT_ID":63728,"ELEMENT_SET_NO":999,"REV_AT_EPOCH":6613,"BSTAR":0.000085446,"MEAN_MOTION_DOT":0.0000043,"MEAN_MOTION_DDOT":0},{"OBJECT_NAME":"KUIPER-00013","OBJECT_ID":"2025-088F","EPOCH":"2026-07-10T14:51:04.732992","CLASSIFICATION_TYPE":"U","MEAN_MOTION":14.79916961,"ECCENTRICITY":0.0000456,"INCLINATION":51.9008,"RA_OF_ASC_NODE":284.5216,"ARG_OF_PERICENTER":99.9732,"MEAN_ANOMALY":260.1282,"EPHEMERIS_TYPE":0,"NORAD_CAT_ID":63729,"ELEMENT_SET_NO":999,"REV_AT_EPOCH":6577,"BSTAR":0.000098915,"MEAN_MOTION_DOT":0.00000533,"MEAN_MOTION_DDOT":0},{"OBJECT_NAME":"KUIPER-00014","OBJECT_ID":"2025-088G","EPOCH":"2026-07-10T14:02:25.061856","CLASSIFICATION_TYPE":"U","MEAN_MOTION":14.79933346,"ECCENTRICITY":0.0000563,"INCLINATION":51.9023,"RA_OF_ASC_NODE":284.6143,"ARG_OF_PERICENTER":103.1921,"MEAN_ANOMALY":256.9104,"EPHEMERIS_TYPE":0,"NORAD_CAT_ID":63730,"ELEMENT_SET_NO":999,"REV_AT_EPOCH":6558,"BSTAR":0.000096219,"MEAN_MOTION_DOT":0.00000512,"MEAN_MOTION_DDOT":0},{"OBJECT_NAME":"KUIPER-00015","OBJECT_ID":"2025-088H","EPOCH":"2026-07-09T12:39:38.700000","CLASSIFICATION_TYPE":"U","MEAN_MOTION":14.79922502,"ECCENTRICITY":0.00005551,"INCLINATION":51.8996,"RA_OF_ASC_NODE":299.353,"ARG_OF_PERICENTER":99.8964,"MEAN_ANOMALY":260.2061,"EPHEMERIS_TYPE":0,"NORAD_CAT_ID":63731,"ELEMENT_SET_NO":999,"REV_AT_EPOCH":6574,"BSTAR":0.00013983352,"MEAN_MOTION_DOT":0.00000845,"MEAN_MOTION_DDOT":0},{"OBJECT_NAME":"KUIPER-00016","OBJECT_ID":"2025-088J","EPOCH":"2026-07-10T07:29:34.550880","CLASSIFICATION_TYPE":"U","MEAN_MOTION":14.79916037,"ECCENTRICITY":0.0000634,"INCLINATION":51.9002,"RA_OF_ASC_NODE":288.3353,"ARG_OF_PERICENTER":85.5219,"MEAN_ANOMALY":274.5815,"EPHEMERIS_TYPE":0,"NORAD_CAT_ID":63732,"ELEMENT_SET_NO":999,"REV_AT_EPOCH":6550,"BSTAR":0.0002618,"MEAN_MOTION_DOT":0.00001774,"MEAN_MOTION_DDOT":0},{"OBJECT_NAME":"KUIPER-00018","OBJECT_ID":"2025-088K","EPOCH":"2026-07-09T11:29:34.043136","CLASSIFICATION_TYPE":"U","MEAN_MOTION":14.79930767,"ECCENTRICITY":0.00006212,"INCLINATION":51.9028,"RA_OF_ASC_NODE":282.0492,"ARG_OF_PERICENTER":104.3104,"MEAN_ANOMALY":255.7927,"EPHEMERIS_TYPE":0,"NORAD_CAT_ID":63733,"ELEMENT_SET_NO":999,"REV_AT_EPOCH":6552,"BSTAR":0.0001270211,"MEAN_MOTION_DOT":0.00000747,"MEAN_MOTION_DDOT":0},{"OBJECT_NAME":"KUIPER-00019","OBJECT_ID":"2025-088L","EPOCH":"2026-07-10T05:57:38.128608","CLASSIFICATION_TYPE":"U","MEAN_MOTION":14.79929338,"ECCENTRICITY":0.00012065,"INCLINATION":51.8992,"RA_OF_ASC_NODE":277.4058,"ARG_OF_PERICENTER":104.856,"MEAN_ANOMALY":255.2536,"EPHEMERIS_TYPE":0,"NORAD_CAT_ID":63734,"ELEMENT_SET_NO":999,"REV_AT_EPOCH":6565,"BSTAR":0.000016773295,"MEAN_MOTION_DOT":-9.3e-7,"MEAN_MOTION_DDOT":0},{"OBJECT_NAME":"KUIPER-00020","OBJECT_ID":"2025-088M","EPOCH":"2026-07-09T21:09:01.706400","CLASSIFICATION_TYPE":"U","MEAN_MOTION":14.7995487,"ECCENTRICITY":0.00001715,"INCLINATION":51.9039,"RA_OF_ASC_NODE":282.7729,"ARG_OF_PERICENTER":76.3549,"MEAN_ANOMALY":283.7432,"EPHEMERIS_TYPE":0,"NORAD_CAT_ID":63735,"ELEMENT_SET_NO":999,"REV_AT_EPOCH":6575,"BSTAR":-0.0013045103,"MEAN_MOTION_DOT":-0.00010156,"MEAN_MOTION_DDOT":0},{"OBJECT_NAME":"KUIPER-00021","OBJECT_ID":"2025-088N","EPOCH":"2026-07-10T06:03:59.157792","CLASSIFICATION_TYPE":"U","MEAN_MOTION":14.79927502,"ECCENTRICITY":0.00006259,"INCLINATION":51.8994,"RA_OF_ASC_NODE":281.0859,"ARG_OF_PERICENTER":102.9439,"MEAN_ANOMALY":257.1593,"EPHEMERIS_TYPE":0,"NORAD_CAT_ID":63736,"ELEMENT_SET_NO":999,"REV_AT_EPOCH":6564,"BSTAR":0.00012748695,"MEAN_MOTION_DOT":0.00000751,"MEAN_MOTION_DDOT":0},{"OBJECT_NAME":"KUIPER-00023","OBJECT_ID":"2025-088P","EPOCH":"2026-07-10T06:48:33.228288","CLASSIFICATION_TYPE":"U","MEAN_MOTION":14.79964824,"ECCENTRICITY":0.00004458,"INCLINATION":51.9014,"RA_OF_ASC_NODE":283.4381,"ARG_OF_PERICENTER":116.8065,"MEAN_ANOMALY":243.2943,"EPHEMERIS_TYPE":0,"NORAD_CAT_ID":63737,"ELEMENT_SET_NO":999,"REV_AT_EPOCH":6591,"BSTAR":0.00029049554,"MEAN_MOTION_DOT":0.00001996,"MEAN_MOTION_DDOT":0},{"OBJECT_NAME":"KUIPER-00024","OBJECT_ID":"2025-088Q","EPOCH":"2026-07-08T12:59:49.952832","CLASSIFICATION_TYPE":"U","MEAN_MOTION":14.79918973,"ECCENTRICITY":0.00006778,"INCLINATION":51.9038,"RA_OF_ASC_NODE":278.7414,"ARG_OF_PERICENTER":101.5853,"MEAN_ANOMALY":258.5185,"EPHEMERIS_TYPE":0,"NORAD_CAT_ID":63738,"ELEMENT_SET_NO":999,"REV_AT_EPOCH":6595,"BSTAR":0.00012030648,"MEAN_MOTION_DOT":0.00000696,"MEAN_MOTION_DDOT":0},{"OBJECT_NAME":"KUIPER-00025","OBJECT_ID":"2025-088R","EPOCH":"2026-07-10T06:07:53.084928","CLASSIFICATION_TYPE":"U","MEAN_MOTION":14.79918715,"ECCENTRICITY":0.00005366,"INCLINATION":51.9039,"RA_OF_ASC_NODE":278.6437,"ARG_OF_PERICENTER":79.2827,"MEAN_ANOMALY":280.8196,"EPHEMERIS_TYPE":0,"NORAD_CAT_ID":63739,"ELEMENT_SET_NO":999,"REV_AT_EPOCH":6596,"BSTAR":0.00011590584,"MEAN_MOTION_DOT":0.00000662,"MEAN_MOTION_DDOT":0}]}
